#dP2022  4  1  0  0  0.00000000      96 __u+U ITR14 FIT  IAC
## 2203 432000.00000000   900.00000000 59670 0.0000000000000
+  127   C01C02C03C04C05C06C07C08C09C10C11C12C13C14C16C19C20
+        C21C22C23C24C25C26C27C28C29C30C32C33C34C35C36C37C38
+        C39C40C41C42C43C44C45C46C60E01E02E03E04E05E07E08E09
+        E10E11E12E13E14E15E18E19E21E24E25E26E27E30E31E33E34
+        E36G01G02G03G04G05G06G07G08G09G10G11G12G13G14G15G16
+        G17G18G19G20G21G22G23G24G25G26G27G28G29G30G31G32J02
+        J03J07R01R02R03R04R05R06R07R08R09R10R11R12R13R14R15
+        R17R18R19R20R21R22R23R24  0  0  0  0  0  0  0  0  0
++         0 15 14 15 15  9  9 10  9  9  9  9  9  9  9  8  8
++         7  8  8  7  7  7  7  7  7  7  8  7  7  8  8  8  8
++         8  8  8  7  7  7  8  8 15  4  5  4  5  4  5  4  4
++         6  5  5  4  5  4  5  5  4  4  4  4  4  5  5  5  4
++         5  4  4  4  4  4  4  4  4  4  4  0  4  4  4  4  4
++         4  4  4  4  5  4  4  4  4  4  4  5  4  4  4  4  8
++         9 14  7  6  6  6  6 13  6  6  6 13  8  6  7  6  6
++         6  7  8  7  6  7 13  6  0  0  0  0  0  0  0  0  0
%c M  cc GPS ccc cccc cccc cccc cccc ccccc ccccc ccccc ccccc
%c cc cc ccc ccc cccc cccc cccc cccc ccccc ccccc ccccc ccccc
%f  0.0000000  0.000000000  0.00000000000  0.000000000000000
%f  0.0000000  0.000000000  0.00000000000  0.000000000000000
%i    0    0    0    0      0      0      0      0         0
%i    0    0    0    0      0      0      0      0         0
/* INFORMATION & ANALYSIS CENTER (IAC)            RAPID DATA
/* S/V CLOCKS ARE ALIGNED TO GNSS TIME                      
/* G:C1WC2W R:C1PC2P E:C1XC5X C:C2IC6I J:C1CC2S             
/* PCV:IGS14_2196 OL/AL:FES2004  NONE     YN ORB:CoN CLK:CoN
*  2022 04 01 21 30  0.00000000
PC01      0.000000      0.000000      0.000000 999999.999999
PC02   4421.993068  41969.728754    631.022520    169.096858
PC03 -14790.358582  39524.860319   -318.101134   -563.607401
PC04 -39621.676968  14407.554961   -521.530847   -214.979552
PC05  21935.596564  36077.525601    580.007908   -276.602733
PC06  -5977.769068  24191.629855  34040.377345   -282.982502
PC07 -18616.186122  34467.113010 -15790.777916     60.448547
PC08  -4275.511593  38541.418585 -16372.352493    233.559627
PC09   6207.041155  28115.501112  31308.085017   -657.956855
PC10 -11675.214758  34546.510724 -21305.451530    137.450266
PC11 -25368.617189 -11629.853516    872.860385    265.721766
PC12 -13509.673122 -17705.434138  16852.640630   -631.829723
PC13   2113.255463  41357.054010  -7086.161503    -72.774796
PC14 -18820.780845  -3062.376519 -20367.583039    454.133401
PC16  -7814.202482  22954.688660  34666.406173    112.520686
PC19  23179.472763  -5655.457014  14488.785654    881.728939
PC20  12720.739664   9919.223356  22789.167365   -863.935419
PC21   6079.608172 -20498.552351 -17896.769538    -37.249955
PC22  20650.966663 -18566.113847  -2586.635775   -964.331745
PC23 -11177.404972  17373.390594  18759.165409   -936.670530
PC24 -11899.433220 -22142.662184  12131.001122   -950.108758
PC25 -16562.225004  -1954.289640  22367.706825   -757.217882
PC26  -1935.022176 -27625.027469  -3608.755649    757.766499
PC27   3935.186961  17605.848887 -21316.754846    701.202765
PC28 -15478.043983   9436.531250 -21215.222680     50.360653
PC29  26369.145307   3606.836279   8395.847599    535.626676
PC30  21371.903746  15136.440937  -9683.592897    496.208902
PC32  -5949.801278  20591.122962  17898.673270   -965.018644
PC33 -23149.900213   5766.429859 -14480.108151   -971.378759
PC34 -21965.189624 -14776.384118   8771.487462   -435.089254
PC35  16011.672656  -9458.005265  20809.490760    209.320852
PC36  16527.236680   2906.926988 -22277.094565   -965.337008
PC37    514.990913  27494.579549   4690.218296   -930.562048
PC38  -9105.230170  34892.361222 -21700.149453    222.147102
PC39 -14310.393398  20130.967727  34176.120744     34.917376
PC40 -25615.164426  30054.932347 -15022.193770    257.282260
PC41 -20780.803468  18500.068738   2226.276842   -970.075402
PC42 -11923.548689 -10668.633870 -22814.981178   -944.949981
PC43 -26467.716231  -4132.089066  -7778.240070   -932.512912
PC44  -4238.956653 -17513.958600  21286.257122    614.041031
PC45  10930.897657 -17623.212651 -18686.254229    720.237304
PC46  12528.688706  21024.488158 -13374.678810   -249.280198
PC60   7296.749655  41517.027499  -1397.882532     -0.511461
PE01   1790.375467 -26999.789256  12004.763796   -608.208700
PE02  -1647.770012  26929.177900 -12161.638985    290.093183
PE03   3353.124126  16746.153005  24178.943497   -543.567456
PE04 -22786.889183  -8475.090312 -16873.921108   -997.359820
PE05 -18413.989898  15320.604247  17396.561685   -194.819832
PE07  29166.325785  -4991.697613   -574.651874   -654.320158
PE08  23042.703968   8098.441466  16720.094702   -505.148501
PE09 -29129.577044   5239.022955    792.161564   -469.652702
PE10 -22488.873570 -12055.829164 -15005.547842   -504.075178
PE11 -19971.741291  -2119.919679 -21744.141784   4074.617583
PE12 -21253.191902 -19615.808577  -6237.579009   4684.023607
PE13  20223.372159   2828.811064  21437.976058    427.724907
PE14 -29499.471896   6059.811343  -8407.875107  -1799.099197
PE15  21261.679324  19681.377511   6101.961138    754.226046
PE18  25163.730345   1766.568014   -694.749851  -1614.493631
PE19   -467.256316 -17009.713922 -24210.040578  -2305.578152
PE21  13905.555329 -25552.435958  -5492.670264   -725.983601
PE24 -18817.615134   7905.721411  21410.270449   -537.783698
PE25 -14031.422885  25419.440824   5736.071722   -568.893057
PE26   6654.956595 -16414.815432  23718.666915   -981.090593
PE27  18829.664180  -9347.656392 -20846.055263   -266.599076
PE30  12055.505374  13315.041960 -23538.109902   -396.468752
PE31 -12630.962070 -12238.660431  23810.847118   -494.418917
PE33  -9742.427966 -24852.208866  12779.209195   -458.012679
PE34   9957.976511  24867.360321 -12600.857768   -509.862106
PE36  -7301.394714  15589.408541 -24079.226759   -353.670043
PG01  18219.496410   7867.752437  17538.978454    394.871187
PG02 -14782.879837 -21954.121693   1460.723927   -652.835209
PG03  17212.189750  -3546.203269  19775.653970   -189.139392
PG04  26567.293663    917.398722   1127.261727   -179.277849
PG05 -10255.983521 -12690.333120 -21091.080840    -76.785098
PG06  -2712.326023 -22327.372529  14129.651032    251.711099
PG07  12281.043946  -9067.026821 -21325.640095    318.719397
PG08  23523.526051   6444.455296 -10970.539653    -62.201610
PG09  23674.705812  -7756.899444  -9317.746469   -346.366151
PG10 -11152.895897  23851.690449   2074.816457   -365.388534
PG11      0.000000      0.000000      0.000000 999999.999999
PG12 -16127.875343  -1184.551718  20774.885134   -193.890170
PG13 -16696.934488 -13016.319767 -16292.442203    286.843838
PG14  12825.928936 -23185.098669   1040.785612    -99.185955
PG15 -24322.408536  -4202.335621 -10625.312076    -72.224077
PG16   5491.047702  16667.639823 -20065.493772   -487.230126
PG17  10481.527995 -13582.210251  20722.428167    594.907458
PG18 -12061.136866   8990.300477 -21889.542090    205.872957
PG19   2334.978441 -14557.600469  21825.830692    138.809218
PG20  -4756.373707 -20973.381817 -15732.849271    516.028743
PG21  19923.759217  15575.831179   9796.024233    160.038821
PG22   1210.376433  15436.870557  21998.622408    236.705780
PG23 -16369.183267  18849.209365  -8933.617106    -11.659413
PG24 -20207.500296 -10510.300841  13694.785562    261.863985
PG25 -18073.742273  12909.452037  14067.535707    306.327980
PG26  -2063.606441  23832.098434 -11292.219084    195.416948
PG27  14022.755521  12580.619922 -19086.478050    172.006066
PG28   7425.111234 -23739.627172  10144.479695    374.348555
PG29 -24878.658278   4434.896821  -8325.155441   -498.248579
PG30   5992.701523 -17350.491203 -19037.734954   -521.743348
PG31   4089.133259  23228.896532  11610.125775   -171.562287
PG32  -6612.002017  15009.421393  20993.745152    -96.620650
PJ02 -30869.274917  26247.436953  16526.668755     -2.400217
PJ03 -26506.229419  16406.851244 -23807.319477     -1.301436
PJ07 -25350.843399  33698.441286     54.130509      0.027001
PR01  -7664.679191  -8321.729016 -22855.451622      7.510508
PR02 -21661.909441   4465.302602 -12604.693024    514.294691
PR03 -21140.357741  13498.599204   4533.686722     54.161195
PR04  -8992.574472  14620.700465  18898.363318    134.657710
PR05   8171.213315   7829.066908  22878.509558     90.417527
PR06  21924.244189  -5738.036454  11724.754182    -40.817922
PR07  20943.309873 -13667.366801  -5101.349597     33.354835
PR08   8867.402509 -14698.202646 -18815.842231    -64.367237
PR09  11214.992927   2278.236212 -22786.719401     47.502789
PR10   9228.480714 -15035.553865 -18469.235824    -81.116337
PR11   2000.761604 -25254.117848  -2923.354951     42.145385
PR12  -6414.016826 -19750.855300  14847.959879     17.711408
PR13 -10837.465767  -3595.618574  22789.754380    -20.261417
PR14  -9008.735857  16208.197854  17529.563702     76.049669
PR15  -1963.885221  25344.029505   2137.445190     97.142576
PR17 -12845.674323   3491.915536 -21758.778046    514.174488
PR18   2842.336153  13366.326266 -21539.818258    112.200891
PR19  15759.496123  16776.622870 -10999.520913   -183.779513
PR20  21614.356148   9972.318468   9241.827077    -67.829558
PR21  11592.085412  -4422.090176  22282.965172   -289.993192
PR22  -3492.657861 -13634.555745  21231.086790   -174.258060
PR23 -19411.681726 -15644.803204   5359.990251    -35.642616
PR24 -21823.588872  -8870.945126  -9775.421237     87.115824
EOF
